{
  "type": "FeatureCollection",
  "features": [
    {
      "type": "Feature",
      "properties": {
        "norad_id": 43057,
        "name": "GSAT0217 (GALILEO 21)",
        "group": "gnss",
        "lat": 28.55928698074804,
        "lon": -111.01496283380094,
        "alt_km": 23213.595410485857,
        "timestamp": "2025-12-10T16:57:11.878440+00:00",
        "meta_object_name": "GSAT0217 (GALILEO 21)",
        "meta_object_id": "2017-079C",
        "meta_epoch": "2025-12-10T01:28:57.302112",
        "meta_mean_motion": 1.704739,
        "meta_eccentricity": 0.00027944,
        "meta_inclination": 55.1293,
        "meta_ra_of_asc_node": 226.7095,
        "meta_arg_of_pericenter": 343.7549,
        "meta_mean_anomaly": 16.3188,
        "meta_ephemeris_type": 0,
        "meta_classification_type": "U",
        "meta_norad_cat_id": 43057,
        "meta_element_set_no": 999,
        "meta_rev_at_epoch": 4976,
        "meta_bstar": 0,
        "meta_mean_motion_dot": 9e-08,
        "meta_mean_motion_ddot": 0,
        "tle_line1": "1 43057U 17079C   25344.06177433  .00000009  00000+0  00000+0 0  9999",
        "tle_line2": "2 43057  55.1293 226.7095 0002794 343.7549  16.3188  1.70473900 49768"
      },
      "geometry": {
        "type": "Point",
        "coordinates": [
          -111.01496283380094,
          28.55928698074804
        ]
      }
    },
    {
      "type": "Feature",
      "properties": {
        "norad_id": 43058,
        "name": "GSAT0218 (GALILEO 22)",
        "group": "gnss",
        "lat": -54.03377431902715,
        "lon": 120.45957318982823,
        "alt_km": 23222.23863792158,
        "timestamp": "2025-12-10T16:57:11.878458+00:00",
        "meta_object_name": "GSAT0218 (GALILEO 22)",
        "meta_object_id": "2017-079D",
        "meta_epoch": "2025-12-09T02:36:28.325952",
        "meta_mean_motion": 1.70473942,
        "meta_eccentricity": 0.00028125,
        "meta_inclination": 55.1298,
        "meta_ra_of_asc_node": 226.7335,
        "meta_arg_of_pericenter": 306.3632,
        "meta_mean_anomaly": 53.6978,
        "meta_ephemeris_type": 0,
        "meta_classification_type": "U",
        "meta_norad_cat_id": 43058,
        "meta_element_set_no": 999,
        "meta_rev_at_epoch": 4977,
        "meta_bstar": 0,
        "meta_mean_motion_dot": 1.2e-07,
        "meta_mean_motion_ddot": 0,
        "tle_line1": "1 43058U 17079D   25343.10866118  .00000012  00000+0  00000+0 0  9993",
        "tle_line2": "2 43058  55.1298 226.7335 0002812 306.3632  53.6978  1.70473942 49778"
      },
      "geometry": {
        "type": "Point",
        "coordinates": [
          120.45957318982823,
          -54.03377431902715
        ]
      }
    },
    {
      "type": "Feature",
      "properties": {
        "norad_id": 43107,
        "name": "BEIDOU-3 M7 (C27)",
        "group": "gnss",
        "lat": -46.80678840038576,
        "lon": 178.31349415013932,
        "alt_km": 21540.448458824598,
        "timestamp": "2025-12-10T16:57:11.878477+00:00",
        "meta_object_name": "BEIDOU-3 M7 (C27)",
        "meta_object_id": "2018-003A",
        "meta_epoch": "2025-12-10T08:14:11.609952",
        "meta_mean_motion": 1.86232173,
        "meta_eccentricity": 0.0002608,
        "meta_inclination": 54.4988,
        "meta_ra_of_asc_node": 308.8983,
        "meta_arg_of_pericenter": 70.7786,
        "meta_mean_anomaly": 289.2405,
        "meta_ephemeris_type": 0,
        "meta_classification_type": "U",
        "meta_norad_cat_id": 43107,
        "meta_element_set_no": 999,
        "meta_rev_at_epoch": 5383,
        "meta_bstar": 0,
        "meta_mean_motion_dot": -8.2e-07,
        "meta_mean_motion_ddot": 0,
        "tle_line1": "1 43107U 18003A   25344.34318993 -.00000082  00000+0  00000+0 0  9994",
        "tle_line2": "2 43107  54.4988 308.8983 0002608  70.7786 289.2405  1.86232173 53837"
      },
      "geometry": {
        "type": "Point",
        "coordinates": [
          178.31349415013932,
          -46.80678840038576
        ]
      }
    },
    {
      "type": "Feature",
      "properties": {
        "norad_id": 43108,
        "name": "BEIDOU-3 M8 (C28)",
        "group": "gnss",
        "lat": -53.18575127298855,
        "lon": -123.56395503315055,
        "alt_km": 21520.46160641547,
        "timestamp": "2025-12-10T16:57:11.878498+00:00",
        "meta_object_name": "BEIDOU-3 M8 (C28)",
        "meta_object_id": "2018-003B",
        "meta_epoch": "2025-12-09T05:08:23.746272",
        "meta_mean_motion": 1.86230654,
        "meta_eccentricity": 0.00048225,
        "meta_inclination": 54.4927,
        "meta_ra_of_asc_node": 308.9205,
        "meta_arg_of_pericenter": 273.4107,
        "meta_mean_anomaly": 86.5234,
        "meta_ephemeris_type": 0,
        "meta_classification_type": "U",
        "meta_norad_cat_id": 43108,
        "meta_element_set_no": 999,
        "meta_rev_at_epoch": 5382,
        "meta_bstar": 0,
        "meta_mean_motion_dot": -7.7e-07,
        "meta_mean_motion_ddot": 0,
        "tle_line1": "1 43108U 18003B   25343.21416373 -.00000077  00000+0  00000+0 0  9995",
        "tle_line2": "2 43108  54.4927 308.9205 0004822 273.4107  86.5234  1.86230654 53827"
      },
      "geometry": {
        "type": "Point",
        "coordinates": [
          -123.56395503315055,
          -53.18575127298855
        ]
      }
    },
    {
      "type": "Feature",
      "properties": {
        "norad_id": 43207,
        "name": "BEIDOU-3 M4 (C22)",
        "group": "gnss",
        "lat": -13.168100070550322,
        "lon": 60.472123182771604,
        "alt_km": 21519.681118332293,
        "timestamp": "2025-12-10T16:57:11.878516+00:00",
        "meta_object_name": "BEIDOU-3 M4 (C22)",
        "meta_object_id": "2018-018A",
        "meta_epoch": "2025-12-08T13:58:21.554688",
        "meta_mean_motion": 1.86230863,
        "meta_eccentricity": 0.00041601,
        "meta_inclination": 56.4826,
        "meta_ra_of_asc_node": 69.4414,
        "meta_arg_of_pericenter": 11.0555,
        "meta_mean_anomaly": 348.9749,
        "meta_ephemeris_type": 0,
        "meta_classification_type": "U",
        "meta_norad_cat_id": 43207,
        "meta_element_set_no": 999,
        "meta_rev_at_epoch": 5319,
        "meta_bstar": 0,
        "meta_mean_motion_dot": -4.5e-07,
        "meta_mean_motion_ddot": 0,
        "tle_line1": "1 43207U 18018A   25342.58219392 -.00000045  00000+0  00000+0 0  9997",
        "tle_line2": "2 43207  56.4826  69.4414 0004160  11.0555 348.9749  1.86230863 53194"
      },
      "geometry": {
        "type": "Point",
        "coordinates": [
          60.472123182771604,
          -13.168100070550322
        ]
      }
    },
    {
      "type": "Feature",
      "properties": {
        "norad_id": 43208,
        "name": "BEIDOU-3 M3 (C21)",
        "group": "gnss",
        "lat": -46.535395738136785,
        "lon": 25.094895557071098,
        "alt_km": 21516.05016301901,
        "timestamp": "2025-12-10T16:57:11.878539+00:00",
        "meta_object_name": "BEIDOU-3 M3 (C21)",
        "meta_object_id": "2018-018B",
        "meta_epoch": "2025-12-10T06:13:47.825184",
        "meta_mean_motion": 1.86231214,
        "meta_eccentricity": 0.0006517,
        "meta_inclination": 56.4836,
        "meta_ra_of_asc_node": 69.3901,
        "meta_arg_of_pericenter": 317.1688,
        "meta_mean_anomaly": 42.8026,
        "meta_ephemeris_type": 0,
        "meta_classification_type": "U",
        "meta_norad_cat_id": 43208,
        "meta_element_set_no": 999,
        "meta_rev_at_epoch": 5322,
        "meta_bstar": 0,
        "meta_mean_motion_dot": -5.3e-07,
        "meta_mean_motion_ddot": 0,
        "tle_line1": "1 43208U 18018B   25344.25958131 -.00000053  00000+0  00000+0 0  9994",
        "tle_line2": "2 43208  56.4836  69.3901 0006517 317.1688  42.8026  1.86231214 53224"
      },
      "geometry": {
        "type": "Point",
        "coordinates": [
          25.094895557071098,
          -46.535395738136785
        ]
      }
    },
    {
      "type": "Feature",
      "properties": {
        "norad_id": 43245,
        "name": "BEIDOU-3 M9 (C29)",
        "group": "gnss",
        "lat": 20.362253560099987,
        "lon": 111.09269455214371,
        "alt_km": 21528.22369565151,
        "timestamp": "2025-12-10T16:57:11.878556+00:00",
        "meta_object_name": "BEIDOU-3 M9 (C29)",
        "meta_object_id": "2018-029A",
        "meta_epoch": "2025-12-09T09:38:36.109248",
        "meta_mean_motion": 1.86227964,
        "meta_eccentricity": 0.00016746,
        "meta_inclination": 54.3687,
        "meta_ra_of_asc_node": 306.5834,
        "meta_arg_of_pericenter": 274.0787,
        "meta_mean_anomaly": 85.8921,
        "meta_ephemeris_type": 0,
        "meta_classification_type": "U",
        "meta_norad_cat_id": 43245,
        "meta_element_set_no": 999,
        "meta_rev_at_epoch": 5236,
        "meta_bstar": 0,
        "meta_mean_motion_dot": -7.6e-07,
        "meta_mean_motion_ddot": 0,
        "tle_line1": "1 43245U 18029A   25343.40180682 -.00000076  00000+0  00000+0 0  9996",
        "tle_line2": "2 43245  54.3687 306.5834 0001674 274.0787  85.8921  1.86227964 52369"
      },
      "geometry": {
        "type": "Point",
        "coordinates": [
          111.09269455214371,
          20.362253560099987
        ]
      }
    }
  ]
}